ONEWEB-0037             
1 45440U 20020S   23287.36258622 -.00000309  00000+0 -90826-3 0  9998
2 45440  87.8989 215.0896 0002030  83.0452 277.0906 13.11418072174669
ONEWEB-0042             
1 45441U 20020T   23287.52294917 -.00000507  00000+0 -14672-2 0  9998
2 45441  87.8985 215.0789 0002067  78.3614 281.7745 13.11417097174652
ONEWEB-0098             
1 45442U 20020U   23287.51680379 -.00000424  00000+0 -12322-2 0  9997
2 45442  87.8992 215.0830 0001846  69.4977 290.6348 13.11419262174637
ONEWEB-0055             
1 45443U 20020V   23287.50462458  .00000131  00000+0  33500-3 0  9998
2 45443  87.8990 215.0900 0001911  70.5218 289.6116 13.11415320174607
ONEWEB-0093             
1 45444U 20020W   23287.55416195  .00000448  00000+0  12285-2 0  9998
2 45444  87.8984 215.0641 0002105  66.8703 293.2647 13.11419471174674
ONEWEB-0029             
1 45445U 20020X   23287.49732026  .00000392  00000+0  10695-2 0  9997
2 45445  87.8990 215.0837 0002121  78.0698 282.0667 13.11414875174643
ONEWEB-0068             
1 45446U 20020Y   23287.54844745 -.00000977  00000+0 -27912-2 0  9997
2 45446  87.8988 215.0638 0002111  70.8870 289.2487 13.11423144174593
ONEWEB-0046             
1 45447U 20020Z   23287.54604077  .00000147  00000+0  37915-3 0  9992
2 45447  87.8984 215.0766 0002008  85.2497 274.8861 13.11415161174600
